0 COSMOS 530
1 06265U 72087C   13282.12832167 -.00000020  00000-0 -17301-4 0  7953
2 06265 074.0344 157.7391 0087139 355.0682 158.0247 12.65594953891456
0 COSMOS 530
1 06265U 72087C   13287.09900811  .00000022  00000-0  20692-3 0  7974
2 06265 074.0335 150.9415 0087214 347.4134 125.1375 12.65594821892080
0 COSMOS 530
1 06265U 72087C   13289.23403450 -.00000006  00000-0  56981-4 0  7984
2 06265 074.0331 148.0215 0087249 344.1087 132.6190 12.65595261892358
0 COSMOS 530
1 06265U 72087C   13291.67104811 -.00000032  00000-0 -78918-4 0  7999
2 06265 074.0329 144.6884 0087282 340.3554 075.9811 12.65595562892660
0 COSMOS 530
1 06265U 72087C   13293.80614385 -.00000034  00000-0 -92506-4 0  8002
2 06265 074.0330 141.7680 0087301 337.0759 083.7586 12.65595383892933
0 COSMOS 530
1 06265U 72087C   13295.87052884 -.00000001  00000-0  83758-4 0  8014
2 06265 074.0330 138.9448 0087346 333.8861 129.3882 12.65595236893192
